ONEWEB-0033             
1 45142U 20008M   25080.86373463  .00000217  00000+0  58628-3 0  9992
2 45142  87.8835 126.4692 0001857  91.0968 269.0372 13.10377129249874
ONEWEB-0035             
1 45143U 20008N   25080.81814275  .00001039  00000+0  29381-2 0  9995
2 45143  87.8832 126.4734 0001965  90.4879 269.6473 13.10381116248691
ONEWEB-0036             
1 45144U 20008P   25080.88508973  .00000665  00000+0  18671-2 0  9992
2 45144  87.8829 126.4068 0001970 104.1085 256.0261 13.10450859249132
ONEWEB-0038             
1 45145U 20008Q   25081.09850204 -.00000385  00000+0 -11221-2 0  9999
2 45145  87.8806 111.1792 0002707  91.6642 268.4796 13.11416090251864
ONEWEB-0039             
1 45146U 20008R   25081.09613222  .00000291  00000+0  79860-3 0  9995
2 45146  87.8836 126.3862 0002573 103.4778 256.6636 13.10376562249730
ONEWEB-0040             
1 45147U 20008S   25081.16584004 -.00000076  00000+0 -25408-3 0  9991
2 45147  87.8843 126.3920 0002041  97.0411 263.0948 13.10376726249455
ONEWEB-0043             
1 45149U 20008U   25080.86207132  .00000090  00000+0  22172-3 0  9992
2 45149  87.8838 126.4441 0002251 107.8050 252.3323 13.10377511249723
ONEWEB-0044             
1 45150U 20008V   25080.81393890  .00000537  00000+0  15015-2 0  9999
2 45150  87.8831 126.4463 0002124 102.9031 257.2334 13.10371713249236
